ELECTRON KICK STAGE R/B 
1 68293U 26056C   26089.26368922  .00107649  00000+0  16996-2 0  9999
2 68293  50.2932 359.9302 0156405  49.3414 312.1028 15.39942176  1474
STARLINK-37107          
1 68294U 26057A   26089.25002315 -.01112376  39204-3 -24163-2 0  9994
2 68294  97.2807 212.4911 0001491  53.6710  37.7041 15.98356411  2468
STARLINK-37147          
1 68295U 26057B   26089.25002315 -.01107440  38920-3 -23939-2 0  9995
2 68295  97.2803 212.4920 0001457  53.4669  40.6535 15.98443733  2452
STARLINK-37142          
1 68296U 26057C   26089.25002315 -.01114026  39483-3 -23673-2 0  9994
2 68296  97.2800 212.4961 0001520  52.6043  50.6753 15.98752685  2343
STARLINK-37115          
1 68297U 26057D   26089.25002315 -.01111338  39263-3 -23748-2 0  9997
2 68297  97.2799 212.4940 0001493  53.4297  47.0509 15.98651691  2341
STARLINK-36355          
1 68298U 26057E   26089.25002315 -.01111047  39198-3 -23885-2 0  9994
2 68298  97.2802 212.4927 0001364  56.5366  40.4328 15.98543928  2619
STARLINK-37118          
1 68299U 26057F   26089.25002315 -.01108535  39214-3 -23281-2 0  9992
2 68299  97.2795 212.4982 0001463  51.4650  58.2129 15.98962541  2456
STARLINK-36875          
1 68300U 26057G   26089.25002315 -.01107444  39098-3 -23391-2 0  9995
2 68300  97.2797 212.4968 0001515  51.3422  55.5793 15.98860416  2511
STARLINK-37099          
1 68301U 26057H   26089.25002315 -.01114864  39683-3 -23254-2 0  9998
2 68301  97.2792 212.5001 0001525  54.7378  58.7810 15.99086202  2344
STARLINK-37007          
1 68302U 26057J   26089.25002315 -.01122744  40314-3 -23099-2 0  9995
2 68302  97.2787 212.5031 0001428  54.5963  66.5272 15.99332642  2567
STARLINK-36300          
1 68303U 26057K   26089.25002315 -.01123699  40326-3 -23267-2 0  9996
2 68303  97.2788 212.5015 0001514  56.1208  61.4841 15.99218673  2616
STARLINK-36849          
1 68304U 26057L   26089.25002315 -.01116157  39922-3 -22833-2 0  9996
2 68304  97.2787 212.5044 0001497  54.6378  69.2463 15.99433403  2514
