CCSDS_OMM_VERS = 2.0
CREATION_DATE  = 
ORIGINATOR     = 

OBJECT_NAME    = ELECTRON KICK STAGE R/B
OBJECT_ID      = 2026-056C
CENTER_NAME    = EARTH
REF_FRAME      = TEME
TIME_SYSTEM    = UTC
MEAN_ELEMENT_THEORY = SGP/SGP4

EPOCH          = 2026-03-30T06:19:42.748608
MEAN_MOTION    = 15.39942176
ECCENTRICITY   = .01564057
INCLINATION    = 50.2932
RA_OF_ASC_NODE = 359.9302
ARG_OF_PERICENTER = 49.3414
MEAN_ANOMALY   = 312.1028

EPHEMERIS_TYPE = 0
CLASSIFICATION_TYPE = U
NORAD_CAT_ID   = 68293
ELEMENT_SET_NO = 999
REV_AT_EPOCH   = 147
BSTAR          = .16996279E-2
MEAN_MOTION_DOT = .107649E-2
MEAN_MOTION_DDOT = 0

CCSDS_OMM_VERS = 2.0
CREATION_DATE  = 
ORIGINATOR     = 

OBJECT_NAME    = STARLINK-37107
OBJECT_ID      = 2026-057A
CENTER_NAME    = EARTH
REF_FRAME      = TEME
TIME_SYSTEM    = UTC
MEAN_ELEMENT_THEORY = SGP/SGP4

EPOCH          = 2026-03-30T06:00:02.000160
MEAN_MOTION    = 15.98356411
ECCENTRICITY   = .0001491
INCLINATION    = 97.2807
RA_OF_ASC_NODE = 212.4911
ARG_OF_PERICENTER = 53.6710
MEAN_ANOMALY   = 37.7041

EPHEMERIS_TYPE = 0
CLASSIFICATION_TYPE = U
NORAD_CAT_ID   = 68294
ELEMENT_SET_NO = 999
REV_AT_EPOCH   = 246
BSTAR          = -.24162952E-2
MEAN_MOTION_DOT = -.1112376E-1
MEAN_MOTION_DDOT = .39203837E-3

CCSDS_OMM_VERS = 2.0
CREATION_DATE  = 
ORIGINATOR     = 

OBJECT_NAME    = STARLINK-37147
OBJECT_ID      = 2026-057B
CENTER_NAME    = EARTH
REF_FRAME      = TEME
TIME_SYSTEM    = UTC
MEAN_ELEMENT_THEORY = SGP/SGP4

EPOCH          = 2026-03-30T06:00:02.000160
MEAN_MOTION    = 15.98443733
ECCENTRICITY   = .00014576
INCLINATION    = 97.2803
RA_OF_ASC_NODE = 212.4920
ARG_OF_PERICENTER = 53.4669
MEAN_ANOMALY   = 40.6535

EPHEMERIS_TYPE = 0
CLASSIFICATION_TYPE = U
NORAD_CAT_ID   = 68295
ELEMENT_SET_NO = 999
REV_AT_EPOCH   = 245
BSTAR          = -.23938832E-2
MEAN_MOTION_DOT = -.110744E-1
MEAN_MOTION_DDOT = .38919635E-3

CCSDS_OMM_VERS = 2.0
CREATION_DATE  = 
ORIGINATOR     = 

OBJECT_NAME    = STARLINK-37142
OBJECT_ID      = 2026-057C
CENTER_NAME    = EARTH
REF_FRAME      = TEME
TIME_SYSTEM    = UTC
MEAN_ELEMENT_THEORY = SGP/SGP4

EPOCH          = 2026-03-30T06:00:02.000160
MEAN_MOTION    = 15.98752685
ECCENTRICITY   = .00015209
INCLINATION    = 97.2800
RA_OF_ASC_NODE = 212.4961
ARG_OF_PERICENTER = 52.6043
MEAN_ANOMALY   = 50.6753

EPHEMERIS_TYPE = 0
CLASSIFICATION_TYPE = U
NORAD_CAT_ID   = 68296
ELEMENT_SET_NO = 999
REV_AT_EPOCH   = 234
BSTAR          = -.23672516E-2
MEAN_MOTION_DOT = -.1114026E-1
MEAN_MOTION_DDOT = .39482804E-3

CCSDS_OMM_VERS = 2.0
CREATION_DATE  = 
ORIGINATOR     = 

OBJECT_NAME    = STARLINK-37115
OBJECT_ID      = 2026-057D
CENTER_NAME    = EARTH
REF_FRAME      = TEME
TIME_SYSTEM    = UTC
MEAN_ELEMENT_THEORY = SGP/SGP4

EPOCH          = 2026-03-30T06:00:02.000160
MEAN_MOTION    = 15.98651691
ECCENTRICITY   = .00014939
INCLINATION    = 97.2799
RA_OF_ASC_NODE = 212.4940
ARG_OF_PERICENTER = 53.4297
MEAN_ANOMALY   = 47.0509

EPHEMERIS_TYPE = 0
CLASSIFICATION_TYPE = U
NORAD_CAT_ID   = 68297
ELEMENT_SET_NO = 999
REV_AT_EPOCH   = 234
BSTAR          = -.23748001E-2
MEAN_MOTION_DOT = -.1111338E-1
MEAN_MOTION_DDOT = .39263025E-3

CCSDS_OMM_VERS = 2.0
CREATION_DATE  = 
ORIGINATOR     = 

OBJECT_NAME    = STARLINK-36355
OBJECT_ID      = 2026-057E
CENTER_NAME    = EARTH
REF_FRAME      = TEME
TIME_SYSTEM    = UTC
MEAN_ELEMENT_THEORY = SGP/SGP4

EPOCH          = 2026-03-30T06:00:02.000160
MEAN_MOTION    = 15.98543928
ECCENTRICITY   = .00013648
INCLINATION    = 97.2802
RA_OF_ASC_NODE = 212.4927
ARG_OF_PERICENTER = 56.5366
MEAN_ANOMALY   = 40.4328

EPHEMERIS_TYPE = 0
CLASSIFICATION_TYPE = U
NORAD_CAT_ID   = 68298
ELEMENT_SET_NO = 999
REV_AT_EPOCH   = 261
BSTAR          = -.23884732E-2
MEAN_MOTION_DOT = -.1111047E-1
MEAN_MOTION_DDOT = .39197567E-3

CCSDS_OMM_VERS = 2.0
CREATION_DATE  = 
ORIGINATOR     = 

OBJECT_NAME    = STARLINK-37118
OBJECT_ID      = 2026-057F
CENTER_NAME    = EARTH
REF_FRAME      = TEME
TIME_SYSTEM    = UTC
MEAN_ELEMENT_THEORY = SGP/SGP4

EPOCH          = 2026-03-30T06:00:02.000160
MEAN_MOTION    = 15.98962541
ECCENTRICITY   = .00014634
INCLINATION    = 97.2795
RA_OF_ASC_NODE = 212.4982
ARG_OF_PERICENTER = 51.4650
MEAN_ANOMALY   = 58.2129

EPHEMERIS_TYPE = 0
CLASSIFICATION_TYPE = U
NORAD_CAT_ID   = 68299
ELEMENT_SET_NO = 999
REV_AT_EPOCH   = 245
BSTAR          = -.23281216E-2
MEAN_MOTION_DOT = -.1108535E-1
MEAN_MOTION_DDOT = .3921395E-3

CCSDS_OMM_VERS = 2.0
CREATION_DATE  = 
ORIGINATOR     = 

OBJECT_NAME    = STARLINK-36875
OBJECT_ID      = 2026-057G
CENTER_NAME    = EARTH
REF_FRAME      = TEME
TIME_SYSTEM    = UTC
MEAN_ELEMENT_THEORY = SGP/SGP4

EPOCH          = 2026-03-30T06:00:02.000160
MEAN_MOTION    = 15.98860416
ECCENTRICITY   = .00015151
INCLINATION    = 97.2797
RA_OF_ASC_NODE = 212.4968
ARG_OF_PERICENTER = 51.3422
MEAN_ANOMALY   = 55.5793

EPHEMERIS_TYPE = 0
CLASSIFICATION_TYPE = U
NORAD_CAT_ID   = 68300
ELEMENT_SET_NO = 999
REV_AT_EPOCH   = 251
BSTAR          = -.23390688E-2
MEAN_MOTION_DOT = -.1107444E-1
MEAN_MOTION_DDOT = .39098449E-3

CCSDS_OMM_VERS = 2.0
CREATION_DATE  = 
ORIGINATOR     = 

OBJECT_NAME    = STARLINK-37099
OBJECT_ID      = 2026-057H
CENTER_NAME    = EARTH
REF_FRAME      = TEME
TIME_SYSTEM    = UTC
MEAN_ELEMENT_THEORY = SGP/SGP4

EPOCH          = 2026-03-30T06:00:02.000160
MEAN_MOTION    = 15.99086202
ECCENTRICITY   = .00015255
INCLINATION    = 97.2792
RA_OF_ASC_NODE = 212.5001
ARG_OF_PERICENTER = 54.7378
MEAN_ANOMALY   = 58.7810

EPHEMERIS_TYPE = 0
CLASSIFICATION_TYPE = U
NORAD_CAT_ID   = 68301
ELEMENT_SET_NO = 999
REV_AT_EPOCH   = 234
BSTAR          = -.2325398E-2
MEAN_MOTION_DOT = -.1114864E-1
MEAN_MOTION_DDOT = .39683375E-3

CCSDS_OMM_VERS = 2.0
CREATION_DATE  = 
ORIGINATOR     = 

OBJECT_NAME    = STARLINK-37007
OBJECT_ID      = 2026-057J
CENTER_NAME    = EARTH
REF_FRAME      = TEME
TIME_SYSTEM    = UTC
MEAN_ELEMENT_THEORY = SGP/SGP4

EPOCH          = 2026-03-30T06:00:02.000160
MEAN_MOTION    = 15.99332642
ECCENTRICITY   = .00014282
INCLINATION    = 97.2787
RA_OF_ASC_NODE = 212.5031
ARG_OF_PERICENTER = 54.5963
MEAN_ANOMALY   = 66.5272

EPHEMERIS_TYPE = 0
CLASSIFICATION_TYPE = U
NORAD_CAT_ID   = 68302
ELEMENT_SET_NO = 999
REV_AT_EPOCH   = 256
BSTAR          = -.23099442E-2
MEAN_MOTION_DOT = -.1122744E-1
MEAN_MOTION_DDOT = .40313794E-3

CCSDS_OMM_VERS = 2.0
CREATION_DATE  = 
ORIGINATOR     = 

OBJECT_NAME    = STARLINK-36300
OBJECT_ID      = 2026-057K
CENTER_NAME    = EARTH
REF_FRAME      = TEME
TIME_SYSTEM    = UTC
MEAN_ELEMENT_THEORY = SGP/SGP4

EPOCH          = 2026-03-30T06:00:02.000160
MEAN_MOTION    = 15.99218673
ECCENTRICITY   = .00015148
INCLINATION    = 97.2788
RA_OF_ASC_NODE = 212.5015
ARG_OF_PERICENTER = 56.1208
MEAN_ANOMALY   = 61.4841

EPHEMERIS_TYPE = 0
CLASSIFICATION_TYPE = U
NORAD_CAT_ID   = 68303
ELEMENT_SET_NO = 999
REV_AT_EPOCH   = 261
BSTAR          = -.23266968E-2
MEAN_MOTION_DOT = -.1123699E-1
MEAN_MOTION_DDOT = .40326258E-3

CCSDS_OMM_VERS = 2.0
CREATION_DATE  = 
ORIGINATOR     = 

OBJECT_NAME    = STARLINK-36849
OBJECT_ID      = 2026-057L
CENTER_NAME    = EARTH
REF_FRAME      = TEME
TIME_SYSTEM    = UTC
MEAN_ELEMENT_THEORY = SGP/SGP4

EPOCH          = 2026-03-30T06:00:02.000160
MEAN_MOTION    = 15.99433403
ECCENTRICITY   = .00014971
INCLINATION    = 97.2787
RA_OF_ASC_NODE = 212.5044
ARG_OF_PERICENTER = 54.6378
MEAN_ANOMALY   = 69.2463

EPHEMERIS_TYPE = 0
CLASSIFICATION_TYPE = U
NORAD_CAT_ID   = 68304
ELEMENT_SET_NO = 999
REV_AT_EPOCH   = 251
BSTAR          = -.22833032E-2
MEAN_MOTION_DOT = -.1116157E-1
MEAN_MOTION_DDOT = .39921789E-3

